CTC1_L_00542016-05
1 16895U 26923HP  26070.40839120  .00000000  00000+0  00000-0 0  9992
2 16895  99.8000 180.0000 0000000   0.0000 270.0000 13.42494874    12
CTC1_L_00542016-06
1 16896U 24942UL  26070.40839120  .00000000  00000+0  00000-0 0  9992
2 16896  99.8000 180.0000 0000000   0.0000 315.0000 13.42494874    13
CTC1_L_00542016-07
1 16897U 25145MN  26070.40839120  .00000000  00000+0  00000-0 0  9999
2 16897  99.8000 180.0000 0000000   0.0000   0.0000 13.42494874    15
CTC1_L_00542016-08
1 16898U 25259XK  26070.40839120  .00000000  00000+0  00000-0 0  9996
2 16898  99.8000 180.0000 0000000   0.0000  45.0000 13.42494874    15
CTC1_L_00542017-01
1 16899U 23339KK  26070.40839120  .00000000  00000+0  00000-0 0  9994
2 16899  99.8000 192.0000 0000000   0.0000  96.0000 13.42494874    15
CTC1_L_00542017-02
1 16900U 25745CH  26070.40839120  .00000000  00000+0  00000-0 0  9990
2 16900  99.8000 192.0000 0000000   0.0000 141.0000 13.42494874    19
CTC1_L_00542017-03
1 16901U 23302EQ  26070.40839120  .00000000  00000+0  00000-0 0  9998
2 16901  99.8000 192.0000 0000000   0.0000 186.0000 13.42494874    19
CTC1_L_00542017-04
1 16902U 26449CX  26070.40839120  .00000000  00000+0  00000-0 0  9994
2 16902  99.8000 192.0000 0000000   0.0000 231.0000 13.42494874    11
CTC1_L_00542017-05
1 16903U 22562SD  26070.40839120  .00000000  00000+0  00000-0 0  9997
2 16903  99.8000 192.0000 0000000   0.0000 276.0000 13.42494874    11
CTC1_L_00542017-06
1 16904U 26512PB  26070.40839120  .00000000  00000+0  00000-0 0  9997
2 16904  99.8000 192.0000 0000000   0.0000 321.0000 13.42494874    13
CTC1_L_00542017-07
1 16905U 26684DS  26070.40839120  .00000000  00000+0  00000-0 0  9998
2 16905  99.8000 192.0000 0000000   0.0000   6.0000 13.42494874    14
CTC1_L_00542017-08
1 16906U 24005SP  26070.40839120  .00000000  00000+0  00000-0 0  9994
2 16906  99.8000 192.0000 0000000   0.0000  51.0000 13.42494874    15
CTC1_L_00542018-01
1 16907U 26031FJ  26070.40839120  .00000000  00000+0  00000-0 0  9996
2 16907  99.8000 204.0000 0000000   0.0000 102.0000 13.42494874    17
CTC1_L_00542018-02
1 16908U 24341IF  26070.40839120  .00000000  00000+0  00000-0 0  9999
2 16908  99.8000 204.0000 0000000   0.0000 147.0000 13.42494874    17
CTC1_L_00542018-03
1 16909U 24223LJ  26070.40839120  .00000000  00000+0  00000-0 0  9999
2 16909  99.8000 204.0000 0000000   0.0000 192.0000 13.42494874    18
CTC1_L_00542018-04
1 16910U 22752TB  26070.40839120  .00000000  00000+0  00000-0 0  9996
2 16910  99.8000 204.0000 0000000   0.0000 237.0000 13.42494874    10
CTC1_L_00542018-05
1 16911U 25155QS  26070.40839120  .00000000  00000+0  00000-0 0  9997
2 16911  99.8000 204.0000 0000000   0.0000 282.0000 13.42494874    11
CTC1_L_00542018-06
1 16912U 25467KD  26070.40839120  .00000000  00000+0  00000-0 0  9994
2 16912  99.8000 204.0000 0000000   0.0000 327.0000 13.42494874    12
CTC1_L_00542018-07
1 16913U 22847CZ  26070.40839120  .00000000  00000+0  00000-0 0  9994
2 16913  99.8000 204.0000 0000000   0.0000  12.0000 13.42494874    14
CTC1_L_00542018-08
1 16914U 23895AI  26070.40839120  .00000000  00000+0  00000-0 0  9999
2 16914  99.8000 204.0000 0000000   0.0000  57.0000 13.42494874    14
CTC1_L_00542019-01
1 16915U 24143BS  26070.40839120  .00000000  00000+0  00000-0 0  9997
2 16915  99.8000 216.0000 0000000   0.0000 108.0000 13.42494874    15
CTC1_L_00542019-02
1 16916U 22898YI  26070.40839120  .00000000  00000+0  00000-0 0  9993
2 16916  99.8000 216.0000 0000000   0.0000 153.0000 13.42494874    16
CTC1_L_00542019-03
1 16917U 23880TQ  26070.40839120  .00000000  00000+0  00000-0 0  9996
2 16917  99.8000 216.0000 0000000   0.0000 198.0000 13.42494874    16
CTC1_L_00542019-04
1 16918U 22200PF  26070.40839120  .00000000  00000+0  00000-0 0  9992
2 16918  99.8000 216.0000 0000000   0.0000 243.0000 13.42494874    18
CTC1_L_00542019-05
1 16919U 23822PS  26070.40839120  .00000000  00000+0  00000-0 0  9994
2 16919  99.8000 216.0000 0000000   0.0000 288.0000 13.42494874    18
CTC1_L_00542019-06
1 16920U 25005CU  26070.40839120  .00000000  00000+0  00000-0 0  9991
2 16920  99.8000 216.0000 0000000   0.0000 333.0000 13.42494874    11
CTC1_L_00542019-07
1 16921U 25675CC  26070.40839120  .00000000  00000+0  00000-0 0  9995
2 16921  99.8000 216.0000 0000000   0.0000  18.0000 13.42494874    12
CTC1_L_00542019-08
1 16922U 24422BV  26070.40839120  .00000000  00000+0  00000-0 0  9995
2 16922  99.8000 216.0000 0000000   0.0000  63.0000 13.42494874    13
CTC1_L_00542020-01
1 16923U 23990AB  26070.40839120  .00000000  00000+0  00000-0 0  9995
2 16923  99.8000 228.0000 0000000   0.0000 114.0000 13.42494874    14
CTC1_L_00542020-02
1 16924U 25617JA  26070.40839120  .00000000  00000+0  00000-0 0  9994
2 16924  99.8000 228.0000 0000000   0.0000 159.0000 13.42494874    14
CTC1_L_00542020-03
1 16925U 24432FP  26070.40839120  .00000000  00000+0  00000-0 0  9999
2 16925  99.8000 228.0000 0000000   0.0000 204.0000 13.42494874    16
CTC1_L_00542020-04
1 16926U 23048JS  26070.40839120  .00000000  00000+0  00000-0 0  9992
2 16926  99.8000 228.0000 0000000   0.0000 249.0000 13.42494874    16
CTC1_L_00542020-05
1 16927U 26973NG  26070.40839120  .00000000  00000+0  00000-0 0  9993
2 16927  99.8000 228.0000 0000000   0.0000 294.0000 13.42494874    17
CTC1_L_00542020-06
1 16928U 25904ED  26070.40839120  .00000000  00000+0  00000-0 0  9997
2 16928  99.8000 228.0000 0000000   0.0000 339.0000 13.42494874    18
CTC1_L_00542020-07
1 16929U 26734GR  26070.40839120  .00000000  00000+0  00000-0 0  9990
2 16929  99.8000 228.0000 0000000   0.0000  24.0000 13.42494874    10
CTC1_L_00542020-08
1 16930U 24328MM  26070.40839120  .00000000  00000+0  00000-0 0  9999
2 16930  99.8000 228.0000 0000000   0.0000  69.0000 13.42494874    11
CTC1_L_00542021-01
1 16931U 26602NE  26070.40839120  .00000000  00000+0  00000-0 0  9997
2 16931  99.8000 240.0000 0000000   0.0000 120.0000 13.42494874    14
CTC1_L_00542021-02
1 16932U 26818QA  26070.40839120  .00000000  00000+0  00000-0 0  9997
2 16932  99.8000 240.0000 0000000   0.0000 165.0000 13.42494874    14
CTC1_L_00542021-03
1 16933U 23427XV  26070.40839120  .00000000  00000+0  00000-0 0  9991
2 16933  99.8000 240.0000 0000000   0.0000 210.0000 13.42494874    16
CTC1_L_00542021-04
1 16934U 25252BP  26070.40839120  .00000000  00000+0  00000-0 0  9990
2 16934  99.8000 240.0000 0000000   0.0000 255.0000 13.42494874    16
CTC1_L_00542021-05
1 16935U 22408QE  26070.40839120  .00000000  00000+0  00000-0 0  9991
2 16935  99.8000 240.0000 0000000   0.0000 300.0000 13.42494874    18
CTC1_L_00542021-06
1 16936U 22877ZV  26070.40839120  .00000000  00000+0  00000-0 0  9992
2 16936  99.8000 240.0000 0000000   0.0000 345.0000 13.42494874    18
CTC1_L_00542021-07
1 16937U 22215EA  26070.40839120  .00000000  00000+0  00000-0 0  9999
2 16937  99.8000 240.0000 0000000   0.0000  30.0000 13.42494874    10
CTC1_L_00542021-08
1 16938U 26801EL  26070.40839120  .00000000  00000+0  00000-0 0  9995
2 16938  99.8000 240.0000 0000000   0.0000  75.0000 13.42494874    10
CTC1_L_00542022-01
1 16939U 26461NU  26070.40839120  .00000000  00000+0  00000-0 0  9998
2 16939  99.8000 252.0000 0000000   0.0000 126.0000 13.42494874    11
CTC1_L_00542022-02
1 16940U 24484ZM  26070.40839120  .00000000  00000+0  00000-0 0  9993
2 16940  99.8000 252.0000 0000000   0.0000 171.0000 13.42494874    13
CTC1_L_00542022-03
1 16941U 23031FC  26070.40839120  .00000000  00000+0  00000-0 0  9991
2 16941  99.8000 252.0000 0000000   0.0000 216.0000 13.42494874    14
CTC1_L_00542022-04
1 16942U 22419NI  26070.40839120  .00000000  00000+0  00000-0 0  9991
2 16942  99.8000 252.0000 0000000   0.0000 261.0000 13.42494874    15
CTC1_L_00542022-05
1 16943U 25800YP  26070.40839120  .00000000  00000+0  00000-0 0  9999
2 16943  99.8000 252.0000 0000000   0.0000 306.0000 13.42494874    16
CTC1_L_00542022-06
1 16944U 24177HB  26070.40839120  .00000000  00000+0  00000-0 0  9996
2 16944  99.8000 252.0000 0000000   0.0000 351.0000 13.42494874    17
CTC1_L_00542022-07
1 16945U 24460NZ  26070.40839120  .00000000  00000+0  00000-0 0  9992
2 16945  99.8000 252.0000 0000000   0.0000  36.0000 13.42494874    18
CTC1_L_00542022-08
1 16946U 22275P   26070.40839120  .00000000  00000+0  00000-0 0  9995
2 16946  99.8000 252.0000 0000000   0.0000  81.0000 13.42494874    19
CTC1_L_00542023-01
1 16947U 25375EQ  26070.40839120  .00000000  00000+0  00000-0 0  9990
2 16947  99.8000 264.0000 0000000   0.0000 132.0000 13.42494874    10
CTC1_L_00542023-02
1 16948U 24425LY  26070.40839120  .00000000  00000+0  00000-0 0  9996
2 16948  99.8000 264.0000 0000000   0.0000 177.0000 13.42494874    10
CTC1_L_00542023-03
1 16949U 23409YV  26070.40839120  .00000000  00000+0  00000-0 0  9998
2 16949  99.8000 264.0000 0000000   0.0000 222.0000 13.42494874    12
CTC1_L_00542023-04
1 16950U 23895LM  26070.40839120  .00000000  00000+0  00000-0 0  9999
2 16950  99.8000 264.0000 0000000   0.0000 267.0000 13.42494874    13
CTC1_L_00542023-05
1 16951U 23262YH  26070.40839120  .00000000  00000+0  00000-0 0  9998
2 16951  99.8000 264.0000 0000000   0.0000 312.0000 13.42494874    15
CTC1_L_00542023-06
1 16952U 22151ZW  26070.40839120  .00000000  00000+0  00000-0 0  9995
2 16952  99.8000 264.0000 0000000   0.0000 357.0000 13.42494874    15
CTC1_L_00542023-07
1 16953U 22079SC  26070.40839120  .00000000  00000+0  00000-0 0  9995
2 16953  99.8000 264.0000 0000000   0.0000  42.0000 13.42494874    17
CTC1_L_00542023-08
1 16954U 23245DN  26070.40839120  .00000000  00000+0  00000-0 0  9992
2 16954  99.8000 264.0000 0000000   0.0000  87.0000 13.42494874    17
CTC1_L_00542024-01
1 16955U 22144SQ  26070.40839120  .00000000  00000+0  00000-0 0  9990
2 16955  99.8000 276.0000 0000000   0.0000 138.0000 13.42494874    18
CTC1_L_00542024-02
1 16956U 25695JJ  26070.40839120  .00000000  00000+0  00000-0 0  9995
2 16956  99.8000 276.0000 0000000   0.0000 183.0000 13.42494874    19
